{"type":"FeatureCollection","features":[{"type":"Feature","properties":{"district":1,"name":"Eunisses Hernandez"},"geometry":{"type":"Polygon","coordinates":[[[-118.27345994431239,34.04169003349022],[-118.24891994347587,34.06264003285828],[-118.24311994311728,34.05732003282786],[-118.2331351296658,34.06161289070246],[-118.23194987242766,34.05663097379685],[-118.22708512841214,34.05493289014065],[-118.22452512883099,34.06760689187046],[-118.21152909718239,34.06602118364864],[-118.21173128377545,34.07370134990213],[-118.20602289780491,34.07734582171661],[-118.20766610194592,34.07857769529344],[-118.20543834956833,34.07797903335461],[-118.20019770857574,34.08452824041769],[-118.19285501684207,34.08592322530654],[-118.18946881266353,34.09851672345259],[-118.19093929898852,34.10116525523943],[-118.18935404590603,34.103938179142546],[-118.19120315554255,34.1039696779773],[-118.18617994383818,34.10778003276294],[-118.18941117480844,34.113106569255706],[-118.18408739683143,34.11525372696306],[-118.22836994314416,34.12520003289527],[-118.23127994269097,34.12008003232957],[-118.24810994418661,34.11069003334926],[-118.2494977724194,34.10861366380387],[-118.24323616533968,34.105912195233806],[-118.23971424552349,34.095806466251425],[-118.22924524240777,34.09025370328],[-118.2273843367415,34.081465015803154],[-118.24049316144364,34.08924143857367],[-118.24523994362006,34.08166003238757],[-118.24133994316728,34.083760033818955],[-118.24401706524368,34.07891914049026],[-118.248029943819,34.080810033443704],[-118.24891997067935,34.07731516707382],[-118.25115994399326,34.07867436789269],[-118.24895994309523,34.07343003313571],[-118.25735220095092,34.0767642992262],[-118.26002286165914,34.07126536809615],[-118.2580471568599,34.069155792332836],[-118.2608719266432,34.06814287843777],[-118.25943739519734,34.0617792858985],[-118.27031389148445,34.066683558736855],[-118.27344006218911,34.0631212813125],[-118.28789743437015,34.068978812683106],[-118.28994040489106,34.06517846483815],[-118.28230568173721,34.06286979667108],[-118.28421190591264,34.05995120082616],[-118.29111330206851,34.05977955166642],[-118.29161939972902,34.050916619056146],[-118.29998774478264,34.05087629166489],[-118.30028453104232,34.03716287711143],[-118.28402112341082,34.03703888792621],[-118.283977203589,34.03170289029768],[-118.27470164544513,34.02756584887465],[-118.27345994431239,34.04169003349022]]]}},{"type":"Feature","properties":{"district":2,"name":"Adrin Nazarian"},"geometry":{"type":"Polygon","coordinates":[[[-118.33733140199489,34.22103826555708],[-118.33959478865565,34.22096713681093],[-118.33981423722118,34.224582288293014],[-118.34419170331803,34.22451094540032],[-118.34440043705774,34.22813348782865],[-118.36533820671082,34.22870778491993],[-118.35922560238065,34.222390605464405],[-118.36655915464806,34.22211998608026],[-118.36903721828487,34.21906598349957],[-118.36692844685476,34.217630023283455],[-118.37034606656678,34.21569835954042],[-118.37033530006329,34.20844451841999],[-118.39652884169003,34.20847481693415],[-118.39653238638319,34.22165258321392],[-118.42262867635623,34.22166593487475],[-118.42673588833017,34.20734712799341],[-118.44869544168631,34.21169884281009],[-118.44877031461495,34.201197066652576],[-118.44000355106972,34.2012015411716],[-118.43999842813933,34.19393552642787],[-118.44654839962713,34.193932632201474],[-118.44654420323181,34.18765582051508],[-118.43999445345628,34.187658855249765],[-118.43998494847222,34.17212651470123],[-118.41371489469368,34.172137168265465],[-118.41124619452467,34.160237231769536],[-118.39685436947099,34.151680641143344],[-118.38773192099258,34.150372902789236],[-118.38613849194223,34.14149605849906],[-118.36747514193574,34.143612466502894],[-118.36284575487561,34.13784584410077],[-118.36116420005675,34.142747373717256],[-118.34504979809893,34.1424510795525],[-118.35311559630203,34.16129410495192],[-118.357162958118,34.161291441526],[-118.35717022117836,34.16484451923543],[-118.3546651878482,34.16491372504979],[-118.36116266607756,34.19465562502888],[-118.3701602559271,34.19635152821437],[-118.37015886870188,34.20101315695526],[-118.36213978744928,34.20113181749923],[-118.36300519001958,34.20686458278085],[-118.33994257198138,34.20650760375798],[-118.3398184507848,34.21119907754332],[-118.33455795456845,34.21562260206054],[-118.33733140199489,34.22103826555708]]]}},{"type":"Feature","properties":{"district":3,"name":"Bob Blumenfield"},"geometry":{"type":"Polygon","coordinates":[[[-118.54919808935848,34.22053406642753],[-118.56230666557119,34.22033632741314],[-118.562314530622,34.2282268332704],[-118.57105958571555,34.22822119562649],[-118.57105986848464,34.231848885373545],[-118.58083662749029,34.23192562780265],[-118.5830731892035,34.2354035992696],[-118.60510078345312,34.235450577205526],[-118.60262320548723,34.23029488913211],[-118.60582520613738,34.22637588819807],[-118.60607920622412,34.21966388702805],[-118.61473020768106,34.21952988705089],[-118.6146372049154,34.18645588351555],[-118.66817609111409,34.18493682429941],[-118.66816533449844,34.17675528881009],[-118.65860119778914,34.17675427844574],[-118.65864129721369,34.169444569028414],[-118.65427579363858,34.16943227254791],[-118.65429280486437,34.16572677729108],[-118.64554647980789,34.16570061563089],[-118.64556485654616,34.161989763178795],[-118.6419870274,34.16198023618556],[-118.63974604369348,34.15909490908168],[-118.64128314718977,34.15678881627183],[-118.63858291781955,34.15769988505353],[-118.62900379814732,34.147277468159935],[-118.61498319146004,34.14728198525359],[-118.6149898827095,34.14927194429059],[-118.56006019016095,34.130025879870345],[-118.55737718968821,34.12661287984193],[-118.55389818990969,34.12866988008073],[-118.55357218933904,34.12604188038819],[-118.5444221879934,34.12655288076088],[-118.5373701873014,34.130641881788634],[-118.53739918665937,34.13313588188054],[-118.5315851860313,34.133258881747956],[-118.53320418768003,34.14699888374879],[-118.52724138786637,34.15865350884662],[-118.52730819305371,34.18660985884269],[-118.53167458634651,34.18807566755509],[-118.53167793794641,34.19023353194022],[-118.53721596178134,34.19056394293021],[-118.5386029587806,34.19929892982194],[-118.52732716524706,34.199308637855204],[-118.52733525224626,34.204771326778335],[-118.5366605472824,34.204761845315446],[-118.53666637729384,34.208390403633636],[-118.54048773868763,34.20838620450874],[-118.54045017258957,34.21564509732235],[-118.54918435712867,34.21563264464531],[-118.54919808935848,34.22053406642753]]]}},{"type":"Feature","properties":{"district":4,"name":"Nithya Raman"},"geometry":{"type":"Polygon","coordinates":[[[-118.51850664056097,34.18299104210527],[-118.51862425353345,34.220989405530595],[-118.54919808935848,34.22053406642753],[-118.54918435712867,34.21563264464531],[-118.54045017258957,34.21564509732235],[-118.54048773868763,34.20838620450874],[-118.53666637729384,34.208390403633636],[-118.5366605472824,34.204761845315446],[-118.52733525224626,34.204771326778335],[-118.52732716524706,34.199308637855204],[-118.5386029587806,34.19929892982194],[-118.53721596178134,34.19056394293021],[-118.53167793794641,34.19023353194022],[-118.53167458634651,34.18807566755509],[-118.52730819305371,34.18660985884269],[-118.52724138786637,34.15865350884662],[-118.53320418768003,34.14699888374879],[-118.5315851860313,34.133258881747956],[-118.53739918665937,34.13313588188054],[-118.53722318675572,34.130561881399416],[-118.52183218425961,34.12799988175119],[-118.5085341825398,34.13112688337867],[-118.50390318116227,34.127693882530174],[-118.50234418084045,34.130487882968424],[-118.50116718055665,34.12903288344341],[-118.4905881791815,34.131223884283706],[-118.482112177341,34.13049088456002],[-118.4775943469083,34.12619714679234],[-118.4707710242196,34.13007826486824],[-118.4591935018217,34.130509864115936],[-118.45548522801823,34.132917066523525],[-118.44335211120926,34.13030931180018],[-118.43003584577511,34.13206251426118],[-118.41541588710665,34.126413616258276],[-118.41402275419341,34.12898764742083],[-118.40752985830842,34.129454931805775],[-118.39757633333856,34.11917570586221],[-118.39440548887374,34.12007329993666],[-118.39223647124042,34.118091819805066],[-118.39058591336868,34.109207885823814],[-118.39209604990631,34.0990592981304],[-118.39651822585651,34.09618724845494],[-118.39585624490178,34.09105945174813],[-118.38605246096377,34.091040944885215],[-118.38498263238424,34.09356313602283],[-118.38119308241694,34.09210918287144],[-118.3687520863923,34.09797650496673],[-118.36447293124263,34.097144267141594],[-118.36430426158519,34.10127837870979],[-118.35188390645769,34.101645122520864],[-118.35100923361509,34.09801511407072],[-118.34520268528323,34.09718486650518],[-118.34588497876344,34.10369454808834],[-118.33748328684493,34.10517762957398],[-118.30929368339513,34.10538591045418],[-118.30927739244402,34.10264410752177],[-118.29279490335279,34.10173505985439],[-118.28413889761381,34.09581702836245],[-118.27602724017478,34.095657842228825],[-118.2701502469639,34.10755633540012],[-118.26656293213922,34.10525493080149],[-118.26602464645728,34.09563478336692],[-118.25922988657135,34.100727841931786],[-118.25921252041758,34.10448099732522],[-118.25585704465865,34.106574330161145],[-118.26640524009716,34.112642270236265],[-118.2805548977529,34.15634822147018],[-118.2914631682716,34.15571256263739],[-118.29547876149537,34.158797978155945],[-118.29883890107125,34.15760793055927],[-118.30965772857869,34.16126431476744],[-118.31291827212948,34.153998364256985],[-118.3221225721246,34.155731747904674],[-118.33104024023962,34.1483227944129],[-118.3423254159738,34.144816210883995],[-118.34513093696049,34.14264105298973],[-118.34422506780705,34.136066265344546],[-118.34878703131325,34.13139113459085],[-118.35706654900602,34.13508419765781],[-118.35888322069607,34.138049576551914],[-118.35736521594752,34.139304739945736],[-118.36284575487561,34.13784584410077],[-118.36747514193574,34.143612466502894],[-118.38145856300912,34.14053324022973],[-118.38639629351285,34.14162267151056],[-118.38773192099258,34.150372902789236],[-118.39685436947099,34.151680641143344],[-118.41124619452467,34.160237231769536],[-118.41371489469368,34.172137168265465],[-118.43998494847222,34.17212651470123],[-118.4399891597874,34.179400339829144],[-118.46965911735052,34.17938603965275],[-118.46752994423622,34.17095003377417],[-118.46947994358483,34.16100003368938],[-118.47517994418904,34.165300033267464],[-118.49236957286732,34.16551494102976],[-118.49927260962096,34.17203247575389],[-118.5054718020589,34.17223924039623],[-118.50548402967583,34.18024117976631],[-118.51582334323534,34.18014706885372],[-118.51581445209355,34.182998008752385],[-118.51850664056097,34.18299104210527]]]}},{"type":"Feature","properties":{"district":5,"name":"Katy Yaroslavsky"},"geometry":{"type":"Polygon","coordinates":[[[-118.39159528128071,34.112431171475556],[-118.3922917759701,34.11821380480642],[-118.39757633333856,34.11917570586221],[-118.4039276653312,34.12785051650881],[-118.40761290660643,34.12947500307893],[-118.41402798147865,34.12898562720094],[-118.41541588710665,34.126413616258276],[-118.43003584577511,34.13206251426118],[-118.44335211120926,34.13030931180018],[-118.45548522801823,34.132917066523525],[-118.4591935018217,34.130509864115936],[-118.4707710242196,34.13007826486824],[-118.47747903494668,34.12619644479992],[-118.48053350438435,34.12985832775082],[-118.47845882991322,34.12448680066269],[-118.48256465161784,34.11863597525046],[-118.48282508029044,34.11110173061412],[-118.47778425287343,34.10372381066559],[-118.47899358850002,34.098189736801494],[-118.47382994327586,34.08190003257766],[-118.45550561644302,34.060048350428],[-118.45953390944464,34.06547432703514],[-118.4548027688455,34.06672933320524],[-118.44578831711081,34.05533483819518],[-118.44909956773508,34.05335613138923],[-118.44806994360715,34.04847003331891],[-118.41831418709232,34.0121705963855],[-118.40697630394077,34.01860735829753],[-118.40565265490686,34.01688958981492],[-118.38777334717042,34.02906957877289],[-118.3909254734573,34.031213189401036],[-118.38608233330324,34.04678463647387],[-118.3768315792966,34.04453663354454],[-118.3761436815613,34.05239301655885],[-118.36721770782809,34.05206438937145],[-118.36436778750158,34.058248911497834],[-118.35097638338853,34.05255754214063],[-118.34909510494946,34.05729315520844],[-118.30962434044525,34.05263935043313],[-118.30964843926529,34.05967675580723],[-118.3265377363814,34.06189914641745],[-118.32661173691463,34.083492667737296],[-118.34406272733743,34.08379955699436],[-118.34407084227996,34.08889866398555],[-118.35281375246286,34.08896729925553],[-118.35281232219938,34.08714700745808],[-118.36645467139823,34.0889293624914],[-118.36644186535236,34.08714578071317],[-118.37249698141912,34.08544306240252],[-118.3725099542363,34.09026118105747],[-118.3769634793174,34.088634917976684],[-118.37704518715857,34.083044944114896],[-118.37031398472192,34.08316223831611],[-118.37031128605794,34.08017436070891],[-118.3751819498039,34.081940921413896],[-118.37717885332361,34.076597314435745],[-118.39073001175792,34.07650551857951],[-118.39071584468297,34.0721154150751],[-118.37582104840708,34.07005657813834],[-118.37225636929723,34.062204694993845],[-118.37728024642726,34.059527037263194],[-118.37734168704763,34.06295894678797],[-118.38344690785831,34.062941971079724],[-118.383579513534,34.057103641592825],[-118.40593411392064,34.057108787608676],[-118.40618017233878,34.05275008069638],[-118.4184537346547,34.07231491378493],[-118.42330128970711,34.075693801826205],[-118.4227906539903,34.083098020772034],[-118.4269740168114,34.08304904836865],[-118.42705307555653,34.09063551498733],[-118.42266826343034,34.09064773216978],[-118.42270200390331,34.09427772614208],[-118.41395714082316,34.094268969164055],[-118.41177979499443,34.092261509746024],[-118.40870643691551,34.10151246777385],[-118.40542258819004,34.10146569870145],[-118.40533196801103,34.096305306345556],[-118.40090008765323,34.09399874890448],[-118.40006392586545,34.11091611779687],[-118.39159528128071,34.112431171475556]],[[-118.4160529438708,34.11251389935884],[-118.40974691587174,34.108859177586936],[-118.40976315357422,34.10515722129543],[-118.41743562889309,34.10520349526818],[-118.4160529438708,34.11251389935884]],[[-118.35755777203873,34.075988848233685],[-118.35848168820722,34.07571002773577],[-118.35848238599002,34.07598482495665],[-118.35755777203873,34.075988848233685]]]}},{"type":"Feature","properties":{"district":6,"name":"Imelda Padilla"},"geometry":{"type":"Polygon","coordinates":[[[-118.36533820671082,34.22870778491993],[-118.3671352936446,34.241811926128996],[-118.37059947560573,34.242987819094786],[-118.37381119197941,34.24856976555449],[-118.37612669615059,34.24687983442055],[-118.37926117243936,34.248549165641016],[-118.3781795025137,34.25506095415226],[-118.38266730091681,34.254351918275766],[-118.39055188211964,34.257474389963],[-118.4162718814793,34.23868197140954],[-118.4421585575164,34.264650908608125],[-118.45179983723408,34.25184340789842],[-118.45055039803721,34.25062431130185],[-118.45612941162005,34.24259122042906],[-118.45775447761721,34.23546634692892],[-118.4610511184866,34.23548855515422],[-118.46108631708441,34.23186276357828],[-118.47300008530152,34.23194143669101],[-118.473109767083,34.22139248826874],[-118.5098918757381,34.22111264243217],[-118.50987588600465,34.20841613347642],[-118.51860800061006,34.20840611075788],[-118.51850664056097,34.18299104210527],[-118.51581445209355,34.182998008752385],[-118.51582334323534,34.18014706885372],[-118.50548402967583,34.18024117976631],[-118.5054718020589,34.17223924039623],[-118.49927260962096,34.17203247575389],[-118.49236957286732,34.16551494102976],[-118.47517994418904,34.165300033267464],[-118.46947994358483,34.16100003368938],[-118.46752994423622,34.17095003377417],[-118.46965911735052,34.17938603965275],[-118.4399891597874,34.179400339829144],[-118.43999445345628,34.187658855249765],[-118.44654420323181,34.18765582051508],[-118.44654839962713,34.193932632201474],[-118.43999842813933,34.19393552642787],[-118.44000355106972,34.2012015411716],[-118.44877031461495,34.201197066652576],[-118.44869544168631,34.21169884281009],[-118.42673588833017,34.20734712799341],[-118.42262867635623,34.22166593487475],[-118.39653238638319,34.22165258321392],[-118.39652884169003,34.20847481693415],[-118.37033530006329,34.20844451841999],[-118.37034606656678,34.21569835954042],[-118.36692844685476,34.217630023283455],[-118.36903721828487,34.21906598349957],[-118.36655915464806,34.22211998608026],[-118.35922560238065,34.222390605464405],[-118.36533820671082,34.22870778491993]]]}},{"type":"Feature","properties":{"district":7,"name":"Monica Rodriguez"},"geometry":{"type":"Polygon","coordinates":[[[-118.33959478865565,34.22096713681093],[-118.26688341328368,34.22185097183608],[-118.2666845794095,34.25078400083989],[-118.2565123660095,34.25227058260375],[-118.25670222896483,34.26719471470157],[-118.23891430467546,34.26708891248915],[-118.23880103162486,34.28159403190451],[-118.27354954198884,34.28166629697469],[-118.27369237780304,34.27807151611589],[-118.2867058858624,34.27834223410635],[-118.28629834252924,34.292653473101375],[-118.29940763071026,34.29326435851866],[-118.29949013383356,34.286101173568476],[-118.32692596970193,34.28606510096671],[-118.32684337057684,34.28244036335692],[-118.3517413132141,34.2824797958714],[-118.35174678114349,34.27883832521623],[-118.35472036039873,34.27885316479969],[-118.36741867739318,34.28037433969381],[-118.3689117466512,34.28326263231032],[-118.37136192215367,34.282348197791116],[-118.36985034777129,34.286131603628746],[-118.37352884453665,34.286150768140885],[-118.37264929239112,34.282836408749624],[-118.38577391608167,34.28482222123877],[-118.3846310432411,34.28973562480953],[-118.38692309568916,34.29153650574897],[-118.38238457733199,34.291531242769665],[-118.38238291746082,34.2933337474129],[-118.38289002953437,34.29696076502895],[-118.38740168339498,34.29696750053045],[-118.38740848599272,34.29878531159895],[-118.39675549142707,34.2969874926592],[-118.40160055973622,34.286427741500454],[-118.4061804287295,34.28593175995975],[-118.4103606264361,34.291972415129685],[-118.40351989134965,34.293518355778694],[-118.40106378356028,34.300675116971654],[-118.40561247771946,34.30073043381072],[-118.40548158982746,34.30791735728234],[-118.40092555190095,34.309693109198705],[-118.40075170727616,34.31647354463605],[-118.39629039924809,34.318074444860116],[-118.39627193609212,34.319865177889696],[-118.40492419410171,34.322082183397335],[-118.40521406388504,34.32981551928088],[-118.41359117863793,34.3298860004533],[-118.41221929610026,34.32590936877876],[-118.41590603379711,34.32449233369074],[-118.42076336827282,34.325577942371126],[-118.41902182648103,34.32988545949206],[-118.49273038439664,34.33062835552096],[-118.50382191187762,34.33731107839654],[-118.5066297956682,34.33519343303569],[-118.50169994391712,34.32392003336174],[-118.49217994403067,34.3180000333655],[-118.46767994382003,34.290880033535295],[-118.47196994352575,34.2717900330304],[-118.47300008530152,34.23194143669101],[-118.46108631708441,34.23186276357828],[-118.4610511184866,34.23548855515422],[-118.45775447761721,34.23546634692892],[-118.45612941162005,34.24259122042906],[-118.45055039803721,34.25062431130185],[-118.45179983723408,34.25184340789842],[-118.4421585575164,34.264650908608125],[-118.4162718814793,34.23868197140954],[-118.39055188211964,34.257474389963],[-118.38266730091681,34.254351918275766],[-118.3781795025137,34.25506095415226],[-118.37926117243936,34.248549165641016],[-118.37612669615059,34.24687983442055],[-118.37381119197941,34.24856976555449],[-118.37059947560573,34.242987819094786],[-118.3671352936446,34.241811926128996],[-118.36533820671082,34.22870778491993],[-118.34440043705774,34.22813348782865],[-118.34419170331803,34.22451094540032],[-118.33981423722118,34.224582288293014],[-118.33959478865565,34.22096713681093]],[[-118.43559977829284,34.27937799405969],[-118.44381970604148,34.27338492212009],[-118.45601822566063,34.28490943015969],[-118.43258100092278,34.304691725576944],[-118.42141285440393,34.29438006152823],[-118.41857431490943,34.29645610483536],[-118.4158035588715,34.29384555546756],[-118.41864455088425,34.29176874350928],[-118.41713502857125,34.290360598972036],[-118.43380986328721,34.27768731667855],[-118.43559977829284,34.27937799405969]]]}},{"type":"Feature","properties":{"district":8,"name":"Marqueece Harris-Dawson"},"geometry":{"type":"Polygon","coordinates":[[[-118.28402112341082,34.03703888792621],[-118.30899910558351,34.03726488325837],[-118.30889931416002,34.02555806182199],[-118.31765298799104,34.02554623861692],[-118.3182242215129,34.00369398377686],[-118.33195428341796,34.0036390079254],[-118.3349802755218,34.00744088734392],[-118.33489458175093,34.014612652000544],[-118.34260721091827,34.008716036526216],[-118.35561600437367,34.0122211020615],[-118.35936792794546,34.001784469752],[-118.35773763214247,33.99710916235286],[-118.35138959336953,34.00468836468057],[-118.34189495087374,34.00470807821503],[-118.33569065195243,34.00811429143711],[-118.33171969118725,34.0021937334681],[-118.3316409703526,33.996338232126924],[-118.33729434210113,33.99631269403198],[-118.33727805103803,33.98849539923781],[-118.3526927291683,33.9893397409029],[-118.35269533281473,33.983064013760426],[-118.35855253176159,33.98167367863219],[-118.33529240595976,33.98170722694609],[-118.33307914356475,33.96725418034673],[-118.32659139480319,33.96727122385246],[-118.32658246286573,33.97079077284639],[-118.31774320757758,33.97081337395513],[-118.31774913178465,33.94546826797062],[-118.31338415483812,33.945465140696065],[-118.31339930571629,33.9382185121846],[-118.30903697012161,33.93821512342605],[-118.30902739688044,33.941837900139355],[-118.30520307378102,33.94184368364456],[-118.30519232742007,33.94547155728803],[-118.30246590529997,33.94547915026179],[-118.30030073413421,33.95949788588771],[-118.29161128305466,33.95949938109876],[-118.291679377105,33.9287029742678],[-118.28082554447053,33.92872588984662],[-118.28057923134459,33.931004033460155],[-118.26923911651139,33.931193477867176],[-118.25481712371479,33.93524887560662],[-118.2586884330406,33.93829563518469],[-118.25417935914865,33.93827731894174],[-118.25354647765771,33.9511928063657],[-118.27170750469395,33.95018969502074],[-118.2716806170528,33.960100251275954],[-118.28072258986491,33.9600827308064],[-118.28075013204572,33.98238187937121],[-118.30026339598963,33.983253433516786],[-118.30018508304931,34.01087073133528],[-118.29155106776265,34.0108684579345],[-118.29155062759187,34.02839551656316],[-118.28883188244248,34.0283930740717],[-118.28883244635104,34.0327697821294],[-118.283977203589,34.03170289029768],[-118.28402112341082,34.03703888792621]]]}},{"type":"Feature","properties":{"district":9,"name":"Curren D. Price Jr."},"geometry":{"type":"Polygon","coordinates":[[[-118.23794007278968,33.98939768179239],[-118.23954470630049,34.01997805056391],[-118.2708287147783,34.03383618306296],[-118.26393199990572,34.04501286771041],[-118.2686977849296,34.04671150245635],[-118.27345994431239,34.04169003349022],[-118.27470164544513,34.02756584887465],[-118.28644167958076,34.03277160216857],[-118.28883244635104,34.0327697821294],[-118.28883188244248,34.0283930740717],[-118.29155062759187,34.02839551656316],[-118.29155106776265,34.0108684579345],[-118.30018508304931,34.01087073133528],[-118.30026339598963,33.983253433516786],[-118.28075013204572,33.98238187937121],[-118.28072258986491,33.9600827308064],[-118.2716806170528,33.960100251275954],[-118.27170750469395,33.95018969502074],[-118.25404983101126,33.950267495386555],[-118.25594184749818,33.95306526335124],[-118.25631628267908,33.989496478848466],[-118.23794007278968,33.98939768179239]]]}},{"type":"Feature","properties":{"district":10,"name":"Heather Hutt"},"geometry":{"type":"Polygon","coordinates":[[[-118.28789743437015,34.068978812683106],[-118.29167427174691,34.069056521236924],[-118.29169749020073,34.076334712188846],[-118.30851517058836,34.076255162888366],[-118.30917511377395,34.07988183434953],[-118.30973145835807,34.06352079356863],[-118.31404339825946,34.063322193349215],[-118.31436442981425,34.06093007926445],[-118.30964843926529,34.05967675580723],[-118.30962434044525,34.05263935043313],[-118.34909510494946,34.05729315520844],[-118.35097638338853,34.05255754214063],[-118.36436778750158,34.058248911497834],[-118.36721770782809,34.05206438937145],[-118.3761436815613,34.05239301655885],[-118.3768315792966,34.04453663354454],[-118.38608233330324,34.04678463647387],[-118.3909254734573,34.031213189401036],[-118.38640794544472,34.02890956931332],[-118.36958925891548,34.03508465172209],[-118.37191094862759,34.02993298615346],[-118.37623794631442,34.0285995209659],[-118.37796105122663,34.021386659198136],[-118.38139335866059,34.02084523382152],[-118.37798508187204,34.018023275762474],[-118.37275580058758,34.01836417299695],[-118.37318743963479,34.01191504990663],[-118.37266155067495,34.01584432275691],[-118.36673097181847,34.0156267537322],[-118.36718493340572,34.00709337012005],[-118.3650388353709,34.005559605120474],[-118.35561600437367,34.0122211020615],[-118.34260721091827,34.008716036526216],[-118.33608661741631,34.01466017803667],[-118.33489076177968,34.00716302000861],[-118.33195428341796,34.0036390079254],[-118.3182242215129,34.00369398377686],[-118.31765298799104,34.02554623861692],[-118.30889931416002,34.02555806182199],[-118.30899910558351,34.03726488325837],[-118.30028453104232,34.03716287711143],[-118.29998774478264,34.05087629166489],[-118.29161939972902,34.050916619056146],[-118.29111330206851,34.05977955166642],[-118.28421190591264,34.05995120082616],[-118.28230568173721,34.06286979667108],[-118.28994040489106,34.06517846483815],[-118.28789743437015,34.068978812683106]]]}},{"type":"Feature","properties":{"district":11,"name":"Traci Park"},"geometry":{"type":"Polygon","coordinates":[[[-118.48053350438435,34.12985832775082],[-118.50229918145857,34.13049788324969],[-118.50390318116227,34.127693882530174],[-118.5085341825398,34.13112688337867],[-118.52183218425961,34.12799988175119],[-118.5348251862674,34.13165488148753],[-118.54809818819608,34.12582587998829],[-118.55459918965029,34.12652588018207],[-118.55382818907023,34.128667880269646],[-118.55737718968821,34.12661287984193],[-118.56000719065482,34.1299978800598],[-118.56481119145243,34.13111587991984],[-118.59921641360394,34.07434148906821],[-118.57040702783381,34.06935133642469],[-118.57011951691564,34.047121820588714],[-118.5671527281449,34.041387641297796],[-118.55637025095047,34.03790469381388],[-118.54500233140851,34.03840102355298],[-118.51758268076482,34.02505904696856],[-118.50860495014678,34.033067420400585],[-118.50756335962762,34.040081366349455],[-118.5039770808091,34.04072886618438],[-118.49442564123343,34.05062111658258],[-118.48382955480818,34.041559848790776],[-118.47720136113143,34.04662533541797],[-118.4530500274716,34.02806966241006],[-118.44352890288017,34.01658079861671],[-118.48335625138242,33.995514940819064],[-118.46199329493787,33.97096893653109],[-118.45966780599547,33.965803229170064],[-118.46201377546166,33.96272385773064],[-118.45980634785215,33.96368508470463],[-118.45840103753052,33.96151547679522],[-118.46044638024574,33.96045392097374],[-118.4555163923841,33.96046783468527],[-118.45242131991183,33.957076583330704],[-118.4400864947453,33.93788301248764],[-118.43027248920734,33.916816558298656],[-118.42223324644921,33.91633428486458],[-118.42223446029882,33.919961878465244],[-118.42767251781879,33.92358721839866],[-118.42877621723754,33.930824526620206],[-118.37873883555083,33.93090946016699],[-118.37873649796917,33.92901270011918],[-118.36838693744286,33.92902564598182],[-118.37012945981103,33.930837204294775],[-118.37017760938015,33.952585901336526],[-118.37888889553531,33.95256192718894],[-118.37890775606219,33.958010983375345],[-118.37125142516128,33.963371548714974],[-118.37283473148524,33.96765292294167],[-118.37013396429711,33.96799784581263],[-118.37016279002965,33.98163839492224],[-118.35848432005004,33.983047799473454],[-118.37181528604256,33.983007009339396],[-118.37182157980818,33.97723542938179],[-118.38604228800385,33.976620768739814],[-118.39766244548414,33.9820749063347],[-118.3949034017466,33.98385971265288],[-118.39877922633224,33.98813023140467],[-118.40134413707166,33.986549865043166],[-118.40788535018108,33.99213357958212],[-118.39982723554176,34.00162023222032],[-118.40276601052813,34.00348915891848],[-118.40590231623766,33.99924177357864],[-118.41437253514425,34.00366663186525],[-118.41965460156894,33.99762585958867],[-118.43120464996909,33.99638283701846],[-118.43088022450159,33.989326799674586],[-118.43710426628961,33.99532203912902],[-118.4472278436184,33.99084106867873],[-118.44840045774268,33.99333911193373],[-118.44338542017134,33.99536463429955],[-118.44246868119188,33.99360347956682],[-118.42832849485168,34.00134245232756],[-118.4259001474246,33.99808582513782],[-118.42023685707974,33.99877866686498],[-118.41817618651483,34.00067109324273],[-118.42108968750136,34.00436079845945],[-118.41736033504439,34.00658418356555],[-118.4213805136048,34.01042527166578],[-118.41831418709232,34.0121705963855],[-118.4486023343581,34.04933481431345],[-118.45658771891907,34.0477216277449],[-118.46796552107966,34.060915331948635],[-118.46890528266768,34.06587626805489],[-118.46674339786424,34.06771238853835],[-118.45879270331251,34.05807824304923],[-118.45550561644302,34.060048350428],[-118.47424994366582,34.08284003339819],[-118.47899358850002,34.098189736801494],[-118.47778425287343,34.10372381066559],[-118.48282508029044,34.11110173061412],[-118.48256465161784,34.11863597525046],[-118.47845882991322,34.12448680066269],[-118.48053350438435,34.12985832775082]],[[-118.45487207074012,33.98636972777567],[-118.44149968922132,33.98336756406025],[-118.43227148249488,33.97502083299321],[-118.45131319132561,33.96423593699749],[-118.46329558019099,33.981005780454886],[-118.45487207074012,33.98636972777567]],[[-118.41488313444984,33.98424905653239],[-118.41344823189888,33.98511252715942],[-118.40904310549146,33.98133772066196],[-118.41247287665654,33.980302214703535],[-118.41488313444984,33.98424905653239]]]}},{"type":"Feature","properties":{"district":12,"name":"John Lee"},"geometry":{"type":"Polygon","coordinates":[[[-118.473109767083,34.22139248826874],[-118.47196994352575,34.2717900330304],[-118.46767994382003,34.290880033535295],[-118.49217994403067,34.3180000333655],[-118.50169994391712,34.32392003336174],[-118.5066297956682,34.33519343303569],[-118.53402272491742,34.31453577490445],[-118.54630869183254,34.31733683169848],[-118.54710921506819,34.313356273774424],[-118.54083328380139,34.29881933025831],[-118.55404619058939,34.29641908439531],[-118.55977966713208,34.29919689196725],[-118.5687201167847,34.29464437128554],[-118.57177466274771,34.29862424441597],[-118.58812181174659,34.30293011071117],[-118.59267460283135,34.28722204540093],[-118.59171081948912,34.28023513287779],[-118.59615255560833,34.27461841795341],[-118.60754305567538,34.27784950150293],[-118.62505616471807,34.27520659374367],[-118.633493937783,34.26967102640058],[-118.63245663514977,34.238576595799294],[-118.62995932080926,34.23858563703794],[-118.63147510863664,34.23702288861638],[-118.64699336072145,34.238086909960465],[-118.64972404895914,34.22711998624442],[-118.65330400995384,34.22756116534335],[-118.6540645952803,34.223500616312414],[-118.65840251403645,34.22350047856535],[-118.65841221315529,34.21642074932856],[-118.65238706414699,34.21642353508318],[-118.65325210296075,34.212950813136366],[-118.6627532769714,34.21290394015955],[-118.6627758433765,34.20934798645816],[-118.66780831385411,34.20933364569437],[-118.6680623046297,34.19497567368662],[-118.65661778535383,34.19676200870573],[-118.65745525931165,34.18991701592504],[-118.66815231016552,34.1913356174855],[-118.66817609111409,34.18493682429941],[-118.6146372049154,34.18645588351555],[-118.61473020768106,34.21952988705089],[-118.60607920622412,34.21966388702805],[-118.60582520613738,34.22637588819807],[-118.60262320548723,34.23029488913211],[-118.60510078345312,34.235450577205526],[-118.58338293631593,34.23545996238668],[-118.58080941950027,34.23191764357077],[-118.57105986848464,34.231848885373545],[-118.57105958571555,34.22822119562649],[-118.562314530622,34.2282268332704],[-118.56230666557119,34.22033632741314],[-118.51862425353345,34.220989405530595],[-118.51860800061006,34.20840611075788],[-118.50987588600465,34.20841613347642],[-118.5098918757381,34.22111264243217],[-118.473109767083,34.22139248826874]]]}},{"type":"Feature","properties":{"district":13,"name":"Hugo Soto-Martinez"},"geometry":{"type":"Polygon","coordinates":[[[-118.27899533734352,34.153208696383274],[-118.27270945878271,34.1276309181774],[-118.26640524009716,34.112642270236265],[-118.25585704465865,34.106574330161145],[-118.25921252041758,34.10448099732522],[-118.25922988657135,34.100727841931786],[-118.26602464645728,34.09563478336692],[-118.26656293213922,34.10525493080149],[-118.27012577383407,34.107555837469036],[-118.27602724017478,34.095657842228825],[-118.28413889761381,34.09581702836245],[-118.29279490335279,34.10173505985439],[-118.30927739244402,34.10264410752177],[-118.30929368339513,34.10538591045418],[-118.34520507980073,34.10395179338834],[-118.34520268528323,34.09718486650518],[-118.35100923361509,34.09801511407072],[-118.35188390645769,34.101645122520864],[-118.36430426158519,34.10127837870979],[-118.36447293124263,34.097144267141594],[-118.36166439875421,34.09718312147637],[-118.36165336340474,34.09454079563792],[-118.34339439853312,34.094415303307414],[-118.34406272733743,34.08379955699436],[-118.32661173691463,34.083492667737296],[-118.3265377363814,34.06189914641745],[-118.30973145835807,34.06352079356863],[-118.30917511377395,34.07988183434953],[-118.30851517058836,34.076255162888366],[-118.29169749020073,34.076334712188846],[-118.29167427174691,34.069056521236924],[-118.28324977536215,34.068194987308345],[-118.27268056521949,34.06297102189482],[-118.27031389148445,34.066683558736855],[-118.25943739519734,34.0617792858985],[-118.2608719266432,34.06814287843777],[-118.2580471568599,34.069155792332836],[-118.26002286165914,34.07126536809615],[-118.25735220095092,34.0767642992262],[-118.24895994309523,34.07343003313571],[-118.25115994399326,34.07867436789269],[-118.24891997067935,34.07731516707382],[-118.248029943819,34.080810033443704],[-118.24401706524368,34.07891914049026],[-118.24133994316728,34.083760033818955],[-118.24523994362006,34.08166003238757],[-118.24049316144364,34.08924143857367],[-118.2273843367415,34.081465015803154],[-118.22944089336124,34.09050991576588],[-118.2393791699002,34.09547710781748],[-118.24323616533968,34.105912195233806],[-118.2494977724194,34.10861366380387],[-118.22967994322586,34.121680033892666],[-118.229582780181,34.135605853880534],[-118.23628548703878,34.13450308464903],[-118.23525024718049,34.12672455754871],[-118.2532766617198,34.12445392606025],[-118.25114546011547,34.12095162077224],[-118.25427063064441,34.118765401634924],[-118.26235622502834,34.12768039816515],[-118.27559800918269,34.15321578835646],[-118.27899533734352,34.153208696383274]]]}},{"type":"Feature","properties":{"district":14,"name":"Ysabel J. Jurado"},"geometry":{"type":"Polygon","coordinates":[[[-118.23972173021656,34.01480020176087],[-118.21716260729697,34.01550007039528],[-118.2082919558532,34.015014380669584],[-118.20698860933582,34.01275086159199],[-118.20507285738516,34.01452421645439],[-118.19142832239957,34.012864136419154],[-118.19263761129957,34.06176714961379],[-118.16531187984499,34.06229858592197],[-118.16050685359468,34.07513169864283],[-118.16067310667788,34.09350029494725],[-118.15536986710319,34.09867487598356],[-118.17800610397009,34.09859993847707],[-118.17800698312548,34.110327980068824],[-118.16887850468511,34.11784790274664],[-118.16846596674613,34.12391889022334],[-118.16579407313269,34.12555319831538],[-118.17045722099891,34.12693316323623],[-118.17684333947167,34.123140978150325],[-118.17653055642216,34.12662478141868],[-118.18020497486178,34.12642996006543],[-118.18610909875244,34.13373656158884],[-118.1856904231239,34.1388799309521],[-118.18043788409975,34.14101124235725],[-118.18457348733476,34.14540566544659],[-118.18380466744996,34.14906251187937],[-118.19820695662187,34.14905015719457],[-118.19820283811322,34.15163108428384],[-118.20878607800888,34.14651155448206],[-118.22624282038696,34.14979439747009],[-118.22869563213311,34.146740103579994],[-118.22792861281948,34.13560554301043],[-118.22962994483355,34.132930033454365],[-118.22669994368299,34.12371003312153],[-118.22222994294717,34.12520003292197],[-118.18408477303,34.11524552071638],[-118.18941117480844,34.113106569255706],[-118.18617994383818,34.10778003276294],[-118.19120315554255,34.1039696779773],[-118.18935404590603,34.103938179142546],[-118.19093929898852,34.10116525523943],[-118.18946881266353,34.09851672345259],[-118.19285501684207,34.08592322530654],[-118.20019770857574,34.08452824041769],[-118.20543834956833,34.07797903335461],[-118.20766610194592,34.07857769529344],[-118.20602289780491,34.07734582171661],[-118.21173128377545,34.07370134990213],[-118.21152909718239,34.06602118364864],[-118.22452512883099,34.06760689187046],[-118.22708512841214,34.05493289014065],[-118.23194987242766,34.05663097379685],[-118.2331351296658,34.06161289070246],[-118.24311994311728,34.05732003282786],[-118.24891994347587,34.06264003285828],[-118.2686977849296,34.04671150245635],[-118.26393199990572,34.04501286771041],[-118.2708287147783,34.03383618306296],[-118.23954470630049,34.01997805056391],[-118.23972173021656,34.01480020176087]]]}},{"type":"Feature","properties":{"district":15,"name":"Tim McOsker"},"geometry":{"type":"Polygon","coordinates":[[[-118.291679377105,33.9287029742678],[-118.29063530465433,33.866319528174394],[-118.29808029660067,33.865545318638446],[-118.2945184619864,33.86647397396069],[-118.29436766541325,33.87055083757591],[-118.29915549724113,33.870536168980415],[-118.299331127671,33.86570299557707],[-118.30925809510684,33.86569543400519],[-118.30975818832898,33.78194678578153],[-118.30643895347785,33.77496321627203],[-118.30893591449856,33.77496847552159],[-118.3116689358529,33.76288259048427],[-118.30904635689646,33.762571638846715],[-118.30904980334603,33.7605203173231],[-118.30189014720415,33.760515892249934],[-118.30101188606645,33.757726114262994],[-118.30909927323192,33.757732437952114],[-118.30946242252756,33.74679443506301],[-118.31846158924013,33.746847211576],[-118.32004356194888,33.741449343110226],[-118.31851729649622,33.73634345967366],[-118.32038524574496,33.73577513527918],[-118.31854284532503,33.7319922995882],[-118.32102256144577,33.729401393195445],[-118.3284838514639,33.72942721030173],[-118.33305067291546,33.72189786288699],[-118.32059954691329,33.71753825749505],[-118.31754656212618,33.71364038210369],[-118.31276101781918,33.7145596899547],[-118.2980080147676,33.70957351806709],[-118.29445617723222,33.704605693951606],[-118.2828891205909,33.709149087764175],[-118.27189412531236,33.7051129536914],[-118.28276708962876,33.71026940923114],[-118.2845894667099,33.713807757127945],[-118.28333788862854,33.71686290801247],[-118.27986667982229,33.717751876776845],[-118.28385965258245,33.72419135702256],[-118.27983164301034,33.72516532135267],[-118.27704881834538,33.72243336595913],[-118.27644596064597,33.71524700849785],[-118.27399044656639,33.713815416061145],[-118.27268611271248,33.71542260569236],[-118.27656337234063,33.72601472468535],[-118.27292269719942,33.71985311463433],[-118.27113230572608,33.72033593996507],[-118.27382681792338,33.72787027591447],[-118.27864319178057,33.73137575744969],[-118.27419258488396,33.72918947307923],[-118.27872007692746,33.73825283172406],[-118.27490661607622,33.74686675624654],[-118.27841795294957,33.74881993575825],[-118.27449382005463,33.74843711221347],[-118.27380287711115,33.75133283696991],[-118.27725572469265,33.756444329455626],[-118.28143755433015,33.7542455655273],[-118.28951138921894,33.754869210369776],[-118.27985856335005,33.75639637824359],[-118.27557583646177,33.76079653314974],[-118.27858344695652,33.7690610940353],[-118.27737119301031,33.76619312283952],[-118.27062634212768,33.76705738046032],[-118.27422126517494,33.757165852047315],[-118.27208668824603,33.75440235937702],[-118.26969337773853,33.753759465233415],[-118.27016799739701,33.7587754734789],[-118.26531550716437,33.76318187063438],[-118.26814218965538,33.75867078951725],[-118.26721673942777,33.753097368699486],[-118.26108391387044,33.75936213219386],[-118.26382297989721,33.76565599578894],[-118.25980560933414,33.76643211833606],[-118.25948849398213,33.76107514843036],[-118.2493720751109,33.773312471569334],[-118.2414547611689,33.77720331680868],[-118.24900663716771,33.77178777315761],[-118.25005525586296,33.768465366751485],[-118.24749988250973,33.76552994574908],[-118.2506064302963,33.76764119333103],[-118.25122413913802,33.76685386831431],[-118.25004317666058,33.764308420480496],[-118.24195180935959,33.76657748522799],[-118.25781992471998,33.75953263096225],[-118.2701188654081,33.748452763432134],[-118.27477608050813,33.740707275152],[-118.27242926061946,33.73255571707702],[-118.27046803804394,33.73530937924261],[-118.27127954679752,33.73030339266889],[-118.26915151158695,33.73076179770627],[-118.27049516675301,33.72879621416623],[-118.26773876939288,33.721825491025804],[-118.26480167425072,33.72255389028276],[-118.26836770126884,33.729589775398615],[-118.2678214973797,33.73343544963504],[-118.27087066348618,33.736674336547175],[-118.26637036194253,33.73855806889001],[-118.26375336021871,33.73094420876383],[-118.24408034729706,33.73621057418411],[-118.24521340236545,33.73892245019827],[-118.25119406121205,33.73746937989413],[-118.25201134317234,33.74460022934715],[-118.25402152677158,33.745203473645645],[-118.25055801031407,33.75073582769931],[-118.24726240376502,33.74876113150189],[-118.24097959241541,33.73363784440387],[-118.25824659477388,33.728879995152234],[-118.26050170561824,33.724110035335514],[-118.25763678265251,33.716832161642984],[-118.24606594071913,33.71562049674492],[-118.2512131400062,33.72359901436032],[-118.2371369389479,33.72768377171992],[-118.24897831983202,33.75590658265455],[-118.24077950866962,33.75830070872232],[-118.24546184091514,33.763893846891094],[-118.2206807851331,33.78254234423995],[-118.22762523138245,33.78995717871503],[-118.22244812796654,33.80415702478013],[-118.22458788131989,33.82438623103193],[-118.22662304532336,33.8294897122966],[-118.22851534017427,33.82438024418975],[-118.2239518881012,33.80622398382822],[-118.23005853245539,33.79254808825013],[-118.237493651119,33.80048542224655],[-118.25861991560951,33.799438381139375],[-118.2566858231333,33.804774134846845],[-118.26464147572983,33.80455565180829],[-118.26460404399344,33.79913193696823],[-118.29910932400401,33.79769066023689],[-118.29911149184495,33.84637222465192],[-118.28619997302921,33.84634734333176],[-118.28526569861566,33.85416179704529],[-118.29066226061744,33.85415872682454],[-118.29066716052341,33.85864457362578],[-118.28148492684535,33.86274062095896],[-118.28209852103681,33.923205431296566],[-118.25360635708907,33.92310022011175],[-118.25421516740172,33.92939869512701],[-118.23025023515392,33.928919160613674],[-118.22949245511253,33.94302196806154],[-118.22743564531507,33.94300901386605],[-118.22861049113543,33.948379695217966],[-118.23393833592209,33.94831802029788],[-118.23390825807502,33.953275561755206],[-118.24746091729887,33.95426153615118],[-118.24919062241905,33.94318130835606],[-118.2541212949934,33.943282501676265],[-118.25417935914865,33.93827731894174],[-118.2586884330406,33.93829563518469],[-118.25481712371479,33.93524887560662],[-118.26923911651139,33.931193477867176],[-118.28057923134459,33.931004033460155],[-118.28082554447053,33.92872588984662],[-118.291679377105,33.9287029742678]],[[-118.29911256061833,33.84729388757919],[-118.29912519915742,33.85818222755445],[-118.2970586425555,33.85818419140379],[-118.2970466262465,33.847289013236484],[-118.29911256061833,33.84729388757919]],[[-118.30300280877078,33.74161083257413],[-118.296840420054,33.743405760390566],[-118.2968667035091,33.7378012375086],[-118.3091555709569,33.73783825610553],[-118.30913140672513,33.74162732823457],[-118.30415411255274,33.7416135963873],[-118.30218863579519,33.73927406066475],[-118.30300280877078,33.74161083257413]]]}}]}